RAVAN                   
1 41849U 16067B   22255.84410269  .00004063  00000+0  32104-3 0  9991
2 41849  98.0100  35.4314 0016150  50.0915 310.1725 15.01170305319105
CELTEE 1                
1 41850U 16067C   22255.31460890  .00002757  00000+0  23414-3 0  9992
2 41850  98.0087  29.5870 0009029  57.3594 302.8498 14.98744682318768
OPTICUBE 04             
1 41851U 16067D   22255.60433716  .00001549  00000+0  13649-3 0  9999
2 41851  98.0095  28.8236 0010196  55.8521 304.3666 14.97983638318754
AEROCUBE 8D             
1 41852U 16067E   22255.84322374  .00003272  00000+0  27724-3 0  9997
2 41852  98.0062  29.1470 0009661  56.8603 303.3544 14.98685660318782
AEROCUBE 8C             
1 41853U 16067F   22256.09306661  .00002816  00000+0  23949-3 0  9995
2 41853  98.0057  29.2186 0009834  50.3379 309.8708 14.98659154318819
PROMETHEUS 2-1          
1 41854U 16067G   22255.85588802  .00005720  00000+0  46353-3 0  9999
2 41854  98.0063  30.2082 0016332  58.7212 301.5608 15.00016740318846
PROMETHEUS 2-3          
1 41855U 16067H   22255.64694221  .00005537  00000+0  44901-3 0  9993
2 41855  98.0040  30.0833 0014417  74.3406 285.9406 15.00025790318818
INS-1B                  
1 41954U 17008G   22255.41657313  .00016088  00000+0  50022-3 0  9999
2 41954  97.2490 313.5772 0005531 284.3393  75.7236 15.33391663310060
BGUSAT                  
1 41999U 17008BD  22255.42718553  .00046916  00000+0  96884-3 0  9992
2 41999  97.2731 325.7743 0003413 251.8571 108.2307 15.45701394310053
DIDO-2                  
1 42000U 17008BE  22255.85476892  .00009504  00000+0  33380-3 0  9994
2 42000  97.2481 312.9624 0005821 315.9561  44.1215 15.29587048309426
PEASSS                  
1 42015U 17008BV  22255.17888178  .00014072  00000+0  43976-3 0  9997
2 42015  97.2552 316.6251 0003676 313.9593  46.1346 15.33267935310050
AL-FARABI 1             
1 42016U 17008BW  22255.14845969  .00020361  00000+0  56658-3 0  9995
2 42016  97.2617 320.0892 0002817 302.2192  57.8779 15.36851831310354
NAYIF-1 (EO-88)         
1 42017U 17008BX  22255.41535277  .00021152  00000+0  58505-3 0  9996
2 42017  97.2609 320.3757 0003046 297.5261  62.5674 15.37032163310422
UCLSAT                  
1 42765U 17036A   22255.86134851  .00015190  00000+0  50091-3 0  9996
2 42765  97.1894 295.8547 0009191  24.2069 335.9603 15.31488539291229
LITUANICASAT-2          
1 42768U 17036D   22255.87534250  .00035789  00000+0  90909-3 0  9995
2 42768  97.1968 299.5405 0008599   2.5348 357.5940 15.39522097290687
AALTO-1                 
1 42775U 17036L   22256.09828012  .00008804  00000+0  33799-3 0  9992
2 42775  97.1904 290.5908 0012670  24.6399 335.5443 15.26610789290147
URSA MAIOR              
1 42776U 17036M   22255.84766272  .00009608  00000+0  36142-3 0  9992
2 42776  97.1919 291.1714 0012287  24.3628 335.8190 15.27268465290145
COMPASS 2               
1 42777U 17036N   22255.84769141  .00024000  00000+0  70281-3 0  9996
2 42777  97.1962 298.4034 0008661  10.6550 349.4875 15.35185580290542
DIAMOND RED             
1 42783U 17036U   22255.54555105  .00010864  00000+0  39126-3 0  9999
2 42783  97.1922 293.3825 0010792  30.5517 329.6350 15.28686632290240
PEGASUS                 
1 42784U 17036V   22256.09956745  .00013557  00000+0  46147-3 0  9999
2 42784  97.1914 295.2510 0010120  25.7986 334.3758 15.30478721290410
DIAMOND GREEN           
1 42785U 17036W   22255.34978085  .00010339  00000+0  37281-3 0  9992
2 42785  97.1924 293.2567 0010641  32.9301 327.2601 15.28659423290281
DIAMOND BLUE            
1 42786U 17036X   22256.06885932  .00011460  00000+0  41274-3 0  9994
2 42786  97.1923 293.9434 0010616  30.7748 329.4113 15.28673435290319
NUDTSAT                 
1 42787U 17036Y   22255.91005510  .00023030  00000+0  64658-3 0  9991
2 42787  97.1958 299.8885 0008849  12.8662 347.2817 15.36513276290510
SUCHAI                  
1 42788U 17036Z   22255.07010380  .00016189  00000+0  51572-3 0  9998
2 42788  97.1920 296.1398 0009208  24.7285 335.4397 15.32587003290441
SKCUBE                  
1 42789U 17036AA  22255.11438953  .00014052  00000+0  46144-3 0  9990
2 42789  97.1919 295.5411 0009362  26.0645 334.1066 15.31640415290338
VZLUSAT-1               
1 42790U 17036AB  22255.86225075  .00024882  00000+0  70317-3 0  9994
2 42790  97.1937 299.7884 0007437  15.2077 344.9390 15.36304847290655
ROBUSTA 1B              
1 42792U 17036AD  22256.08227974  .00016829  00000+0  54023-3 0  9999
2 42792  97.1914 297.1150 0008765  22.9227 337.2405 15.32336635290532
CICERO 6                
1 42793U 17036AE  22256.09716729  .00009796  00000+0  35510-3 0  9997
2 42793  97.1899 294.4257 0009320  30.0902 330.0872 15.28513099290457
CORVUS BC2              
1 42846U 17042X   22255.54410440  .00001690  00000+0  16714-3 0  9993
2 42846  97.4131 107.8926 0010883  68.4002 291.8377 14.93071925281272
CORVUS BC1              
1 42847U 17042Y   22255.55169991  .00001538  00000+0  15218-3 0  9996
2 42847  97.4132 108.2205 0010574  67.4467 292.7871 14.93171415281285
MIRATA                  
1 43015U 17073C   22255.64406822  .00008102  00000+0  58358-3 0  9991
2 43015  97.6615 147.7240 0233834 254.1611 103.3716 14.85013519260205
MAKERSAT 0              
1 43016U 17073D   22255.64718755  .00005398  00000+0  40058-3 0  9995
2 43016  97.6630 147.0906 0241640 259.2747  98.1180 14.83033907260112
ASGARDIA 1              
1 43049U 17071N   22255.05173450  .15425766  12621-4  25874-3 0  9998
2 43049  51.6097 313.3868 0002955 270.4685  89.6006 16.47958215269368
CORVUS BC3              
1 43118U 18004H   22255.14787227  .00008894  00000+0  32407-3 0  9991
2 43118  97.3564 326.7675 0010217  62.1215 298.1058 15.28370220259455
MICROMAS-2A             
1 43131U 18004W   22256.18730235  .00031291  00000+0  78858-3 0  9995
2 43131  97.3700 335.8652 0005998  44.7453 315.4276 15.39811924260065
SPACEBEE-4              
1 43139U 18004AE  22256.20652602  .00080443  00000+0  12986-2 0  9999
2 43139  97.3788 342.2570 0003075  37.1463 323.0002 15.52607940260418
SPACEBEE-3              
1 43140U 18004AF  22256.22594497  .00431491  00000+0  22643-2 0  9994
2 43140  97.3778 348.1861 0004787 268.7941  91.2778 15.79601571260788
SPACEBEE-2              
1 43141U 18004AG  22249.99215889  .13616117  25214-5  83879-3 0  9999
2 43141  97.3560 344.6117 0016906 267.0300  92.9065 16.40015958259984
CICERO 7                
1 43143U 18004AJ  22255.44290388  .00018193  00000+0  52381-3 0  9995
2 43143  97.3686 334.1969 0006325  60.0434 300.1437 15.35794468259910
GOMX-4B                 
1 43196U 18015E   22255.60895828  .00009052  00000+0  33322-3 0  9991
2 43196  97.5460  35.9133 0018224 108.8128 251.5090 15.27930730256467
GOMX-4A                 
1 43197U 18015F   22255.89032368  .00008737  00000+0  30382-3 0  9997
2 43197  97.5447  37.2387 0017668 106.4551  44.6645 15.29818146256582
AEROCUBE 12A            
1 43556U 18046C   22254.90219899  .00023657  00000+0  55057-3 0  9991
2 43556  51.6359 121.5467 0005666 354.9117   5.1810 15.42158600232647
AEROCUBE 12B            
1 43557U 18046D   22255.15969610  .00017861  00000+0  45581-3 0  9994
2 43557  51.6371 126.1843 0006051 352.5522   7.5371 15.39551052232556
SURFSAT                 
1 43614U 18070B   22255.85348851  .00058250  00000+0  67343-3 0  9997
2 43614  93.0191 135.9934 0011133  46.9146 313.3050 15.61613747224673
CP7 (DAVE)              
1 43615U 18070C   22256.14341366  .00051779  00000+0  64629-3 0  9998
2 43615  93.0175 135.8691 0011923  47.5208 312.7063 15.59615672224671
ELFIN-B                 
1 43616U 18070D   22255.75027393  .00466589  85828-4  13046-2 0  9997
2 43616  93.0021 137.8927 0004614  74.9181 285.2612 15.93634791225114
ELFIN-A                 
1 43617U 18070E   22256.14617491  .01300732  11669-2  12468-2 0  9991
2 43617  93.0059 139.7998 0003300 162.6248 197.5159 16.12115293225276
CUBEBEL-1 (BSUSAT-1)    
1 43666U 18083E   22256.18427369  .00010073  00000+0  41121-3 0  9994
2 43666  97.4160 283.9290 0013606  31.7995  41.1255 15.24517598214841
CICERO 10               
1 43690U 18088A   22255.55213868  .00011071  00000+0  42933-3 0  9994
2 43690  85.0317 258.4676 0013467 173.5584 186.5836 15.25902598213032
IRVINE01                
1 43693U 18088D   22255.70495653  .00059459  00000+0  13223-2 0  9999
2 43693  85.0238 251.4331 0014376 130.9027 229.3474 15.43315530213653
PROXIMA I               
1 43694U 18088E   22255.48358118  .00010755  00000+0  39581-3 0  9991
2 43694  85.0255 254.9839 0018357 144.3777 215.8698 15.27554919213249
PROXIMA II              
1 43696U 18088G   22255.74715879  .00010684  00000+0  39342-3 0  9999
2 43696  85.0258 254.8301 0018461 143.5107 216.7400 15.27531720213281
FACSAT-1                
1 43721U 18096C   22256.04192221  .00025130  00000+0  64640-3 0  9992
2 43721  97.3462 335.9222 0014048  99.1453  25.5923 15.39145526211432
CENTAURI-2              
1 43722U 18096D   22254.76783604  .00034185  00000+0  76239-3 0  9998
2 43722  97.3518 337.1665 0012507  99.8710 260.3950 15.43418180211377
INNOSAT-2               
1 43738U 18096V   22256.22391740  .00096031  00000+0  12479-2 0  9997
2 43738  97.3617 347.4008 0010452  82.5369   2.7682 15.58415481212137
SIRION PATHFINDER-2     
1 43759U 18099B   22255.83252130  .00001373  00000+0  12538-3 0  9990
2 43759  97.6129 320.2975 0013262 333.4393  26.6148 14.96596757206110
CORVUS BC4              
1 43767U 18099K   22256.15631066  .00001430  00000+0  13238-3 0  9996
2 43767  97.6086 318.9912 0010921 340.5083  19.5719 14.96003298206084
MOVE-II                 
1 43780U 18099Y   22256.12068965  .00005202  00000+0  44148-3 0  9995
2 43780  97.6162 321.5307 0011628 341.3018  18.7776 14.98288294206182
SPACEBEE-7              
1 43816U 18099BL  22255.18064665  .00003699  00000+0  31707-3 0  9998
2 43816  97.6185 321.3421 0011901 325.8766  34.1691 14.98085217205630
